{
  "type": "FeatureCollection",
  "features": [
    {
      "type": "Feature",
      "geometry": {
        "coordinates": [
          [
            -0.509545,
            44.718849
          ],
          [
            -0.509056,
            44.719503
          ],
          [
            -0.508638,
            44.719924
          ]
        ],
        "type": "LineString"
      },
      "properties": {
        "Date début arrêté": "29/06/2026",
        "Date fin arrêté": "10/07/2026",
        "Type": "Circulation alternée",
        "Durée max (j)": "60",
        "description": "Travaux gaz"
      }
    },
    {
      "type": "Feature",
      "geometry": {
        "coordinates": [
          [
            -0.509545,
            44.718849
          ],
          [
            -0.509056,
            44.719503
          ],
          [
            -0.508638,
            44.719924
          ]
        ],
        "type": "LineString"
      },
      "properties": {
        "Date début arrêté": "17/08/2026",
        "Date fin arrêté": "21/08/2026",
        "Type": "Circulation alternée",
        "Durée max (j)": "5",
        "description": "Travaux orange"
      }
    },
    {
      "type": "Feature",
      "geometry": {
        "coordinates": [
          [
            -0.509545,
            44.718849
          ],
          [
            -0.509056,
            44.719503
          ],
          [
            -0.508638,
            44.719924
          ]
        ],
        "type": "LineString"
      },
      "properties": {
        "Date début arrêté": "31/08/2026",
        "Date fin arrêté": "04/09/2026",
        "Type": "Circulation alternée",
        "Durée max (j)": "5",
        "description": "Travaux orange"
      }
    },
    {
      "type": "Feature",
      "geometry": {
        "coordinates": [
          [
            -0.514479,
            44.720557
          ],
          [
            -0.515139,
            44.720877
          ],
          [
            -0.515123,
            44.720969
          ]
        ],
        "type": "LineString"
      },
      "properties": {
        "description": "Travaux d'AEP",
        "Date début arrêté": "23/07/2026",
        "Date fin arrêté": "05/08/2026",
        "Durée max (j)": "14",
        "type": "Circulation alternée",
        "Type": "Circulation alternée"
      }
    },
    {
      "type": "Feature",
      "geometry": {
        "type": "LineString",
        "coordinates": [
          [
            -0.515686,
            44.720736
          ],
          [
            -0.5153,
            44.720858
          ],
          [
            -0.515161,
            44.720877
          ],
          [
            -0.515085,
            44.720858
          ],
          [
            -0.514474,
            44.720554
          ]
        ]
      },
      "properties": {
        "description": "Raccordement provisoire du giratoire RD 214\nATQ 2026-181",
        "type": "Circulation alternée",
        "Marché": "GCOA8",
        "Date début arrêté": "17/08/2026",
        "Date fin arrêté": "02/09/2026",
        "Type": "Circulation alternée"
      }
    },
    {
      "type": "Feature",
      "geometry": {
        "type": "LineString",
        "coordinates": [
          [
            -0.533727,
            44.744698
          ],
          [
            -0.533571,
            44.744397
          ],
          [
            -0.534049,
            44.744367
          ]
        ]
      },
      "properties": {
        "description": "Reprise enrobés",
        "Date début arrêté": "27/07/2026",
        "Date fin arrêté": "31/07/2026",
        "Type": "Route barrée",
        "Marché": "GCOA5"
      }
    },
    {
      "type": "Feature",
      "geometry": {
        "coordinates": [
          [
            -0.509491,
            44.71892
          ],
          [
            -0.509158,
            44.719368
          ]
        ],
        "type": "LineString"
      },
      "properties": {
        "Date début arrêté": "03/08/2026",
        "Date fin arrêté": "05/08/2026",
        "Type": "Route barrée",
        "Durée max (j)": "3",
        "description": "Raccordement des réseaux d'AEP et d'assainissement\nLes 8 places de parking seront bloquées mais l'accès restera disponible pour les services techniques ainsi que les mariages"
      }
    },
    {
      "type": "Feature",
      "geometry": {
        "coordinates": [
          [
            -0.508971,
            44.719581
          ],
          [
            -0.508638,
            44.719924
          ]
        ],
        "type": "LineString"
      },
      "properties": {
        "Date début arrêté": "03/08/2026",
        "Date fin arrêté": "05/08/2026",
        "Type": "Circulation alternée",
        "Durée max (j)": "3",
        "description": "Déplacement des réseaux d'AEP et d'assainissement"
      }
    },
    {
      "type": "Feature",
      "geometry": {
        "type": "Polygon",
        "coordinates": [
          [
            [
              -0.508943,
              44.719723
            ],
            [
              -0.509088,
              44.719585
            ],
            [
              -0.510177,
              44.720401
            ],
            [
              -0.509995,
              44.720549
            ],
            [
              -0.508943,
              44.719723
            ]
          ]
        ]
      },
      "properties": {
        "Date début arrêté": "26/08/2026",
        "Date fin arrêté": "23/12/2027",
        "Type": "Zone de stockage",
        "Durée max (j)": "485",
        "description": "Installation d'une grue à tour"
      }
    },
    {
      "type": "Feature",
      "geometry": {
        "type": "Polygon",
        "coordinates": [
          [
            [
              -0.508868,
              44.720406
            ],
            [
              -0.508777,
              44.72037
            ],
            [
              -0.508799,
              44.720338
            ],
            [
              -0.508885,
              44.720366
            ],
            [
              -0.508868,
              44.720406
            ]
          ]
        ]
      },
      "properties": {
        "description": "Installation lest béton et 3 poteaux pour alimentation chantier",
        "Date début arrêté": "26/08/2026",
        "Date fin arrêté": "23/12/2027",
        "Type": "Zone de stockage",
        "Durée max (j)": "485",
        "Marché": "GCOA12"
      }
    },
    {
      "type": "Feature",
      "geometry": {
        "type": "LineString",
        "coordinates": [
          [
            -0.540453,
            44.75222
          ],
          [
            -0.54805,
            44.750179
          ],
          [
            -0.545026,
            44.747249
          ],
          [
            -0.537,
            44.737131
          ],
          [
            -0.531463,
            44.730028
          ],
          [
            -0.528331,
            44.725638
          ],
          [
            -0.528154,
            44.724552
          ],
          [
            -0.525235,
            44.72507
          ],
          [
            -0.522022,
            44.726888
          ],
          [
            -0.519441,
            44.728789
          ],
          [
            -0.520778,
            44.729997
          ],
          [
            -0.521894,
            44.730821
          ],
          [
            -0.523733,
            44.731166
          ],
          [
            -0.524726,
            44.73169
          ],
          [
            -0.525927,
            44.732712
          ],
          [
            -0.527408,
            44.734496
          ],
          [
            -0.531056,
            44.741018
          ],
          [
            -0.532837,
            44.743944
          ],
          [
            -0.533073,
            44.744371
          ],
          [
            -0.53288,
            44.744752
          ],
          [
            -0.531893,
            44.746139
          ],
          [
            -0.530901,
            44.747805
          ],
          [
            -0.530944,
            44.749268
          ],
          [
            -0.531571,
            44.749934
          ],
          [
            -0.530831,
            44.75129
          ],
          [
            -0.532311,
            44.751976
          ],
          [
            -0.532747,
            44.751888
          ],
          [
            -0.533609,
            44.751991
          ],
          [
            -0.534875,
            44.75225
          ],
          [
            -0.536935,
            44.752616
          ]
        ]
      },
      "properties": {
        "description": "Travaux Pont Général de Gaulle\nDéviation PL",
        "Date début arrêté": "14/09/2026",
        "Date fin arrêté": "26/01/2028",
        "Type": "Déviation",
        "Durée max (j)": "500"
      }
    },
    {
      "type": "Feature",
      "geometry": {
        "type": "LineString",
        "coordinates": [
          [
            -0.540453,
            44.75222
          ],
          [
            -0.54805,
            44.750179
          ],
          [
            -0.545026,
            44.747249
          ],
          [
            -0.543437,
            44.745224
          ],
          [
            -0.542066,
            44.74615
          ],
          [
            -0.541379,
            44.747339
          ],
          [
            -0.539662,
            44.748375
          ],
          [
            -0.539081,
            44.747966
          ],
          [
            -0.5367,
            44.744158
          ],
          [
            -0.53318,
            44.744478
          ],
          [
            -0.53288,
            44.744752
          ],
          [
            -0.531893,
            44.746139
          ],
          [
            -0.530901,
            44.747805
          ],
          [
            -0.530944,
            44.749268
          ],
          [
            -0.531571,
            44.749934
          ],
          [
            -0.530831,
            44.75129
          ],
          [
            -0.532311,
            44.751976
          ],
          [
            -0.532747,
            44.751888
          ],
          [
            -0.533609,
            44.751991
          ],
          [
            -0.534875,
            44.75225
          ],
          [
            -0.536935,
            44.752616
          ]
        ]
      },
      "properties": {
        "description": "Travaux Pont Général de Gaulle\nDéviation VL",
        "Date début arrêté": "14/09/2026",
        "Date fin arrêté": "26/01/2028",
        "Type": "Déviation",
        "Durée max (j)": "500"
      }
    },
    {
      "type": "Feature",
      "geometry": {
        "type": "LineString",
        "coordinates": [
          [
            -0.505195,
            44.716833
          ],
          [
            -0.504939,
            44.716652
          ],
          [
            -0.504642,
            44.716425
          ],
          [
            -0.504287,
            44.716297
          ],
          [
            -0.503935,
            44.716216
          ]
        ]
      },
      "properties": {
        "description": "TSV GRDF",
        "Date début arrêté": "01/09/2026",
        "Date fin arrêté": "15/10/2026",
        "Type": "Route barrée"
      }
    },
    {
      "type": "Feature",
      "geometry": {
        "type": "LineString",
        "coordinates": [
          [
            -0.50601,
            44.71652
          ],
          [
            -0.505754,
            44.716339
          ],
          [
            -0.505457,
            44.716112
          ],
          [
            -0.505221,
            44.715895
          ],
          [
            -0.50477,
            44.715514
          ]
        ]
      },
      "properties": {
        "description": "TSV GRDF",
        "Date début arrêté": "01/09/2026",
        "Date fin arrêté": "15/10/2026",
        "Type": "Route barrée"
      }
    },
    {
      "type": "Feature",
      "geometry": {
        "coordinates": [
          [
            -0.536613,
            44.749568
          ],
          [
            -0.537182,
            44.749339
          ],
          [
            -0.5373,
            44.749377
          ],
          [
            -0.53803,
            44.749926
          ],
          [
            -0.538529,
            44.750642
          ],
          [
            -0.538639,
            44.750829
          ],
          [
            -0.538655,
            44.750916
          ],
          [
            -0.538622,
            44.750985
          ],
          [
            -0.538419,
            44.75116
          ],
          [
            -0.539368,
            44.751956
          ],
          [
            -0.539626,
            44.752368
          ]
        ],
        "type": "LineString"
      },
      "properties": {
        "Date début arrêté": "16/05/2025",
        "Type": "Déviation",
        "description": "Restriction de hauteur des PN 9 & 10 : 4.2m",
        "_umap_options": {
          "opacity": 0.2
        }
      }
    },
    {
      "type": "Feature",
      "geometry": {
        "coordinates": [
          [
            -0.540012,
            44.755683
          ],
          [
            -0.539854,
            44.755733
          ]
        ],
        "type": "LineString"
      },
      "properties": {
        "description": "Hauteur limite de traversée du PN9 abaissée à 4,2m",
        "Arrêté": "88.2025",
        "Date début arrêté": "16/05/2025",
        "Type": "Circulation restreinte"
      }
    },
    {
      "type": "Feature",
      "geometry": {
        "coordinates": [
          [
            -0.536485,
            44.749616
          ],
          [
            -0.536327,
            44.749666
          ]
        ],
        "type": "LineString"
      },
      "properties": {
        "description": "Hauteur limite de traversée du PN10 abaissée à 4,2m",
        "Arrêté": "89.2025",
        "Date début arrêté": "16/05/2025",
        "Type": "Circulation restreinte"
      }
    },
    {
      "type": "Feature",
      "geometry": {
        "coordinates": [
          [
            -0.533813,
            44.752113,
            12
          ],
          [
            -0.533738,
            44.752261,
            12
          ],
          [
            -0.53377,
            44.754189,
            9
          ],
          [
            -0.533647,
            44.755907,
            7
          ]
        ],
        "type": "LineString"
      },
      "properties": {
        "description": "Circulation sens unique dans le sens RD 111 vers Rue du Moulin Noir ",
        "Arrêté": "125.2023",
        "Date début arrêté": "13/06/2023",
        "Type": "Circulation restreinte",
        "_umap_options": {
          "route": {
            "profile": "foot-walking",
            "preference": "recommended",
            "elevation": true,
            "coordinates": []
          }
        }
      }
    },
    {
      "type": "Feature",
      "geometry": {
        "coordinates": [
          [
            -0.506264,
            44.717132
          ],
          [
            -0.506093,
            44.717233
          ]
        ],
        "type": "LineString"
      },
      "properties": {
        "_umap_options": {
          "labelDirection": "left"
        },
        "Type": "Circulation restreinte",
        "Date début arrêté": "12/10/2025",
        "description": "Portiques G3 - Gabarit limité à 4.2m",
        "Arrêté": "2025/177"
      }
    },
    {
      "type": "Feature",
      "geometry": {
        "coordinates": [
          [
            -0.509049,
            44.7195
          ],
          [
            -0.509162,
            44.719361
          ]
        ],
        "type": "LineString"
      },
      "properties": {
        "Date début arrêté": "13/05/2026",
        "Date fin arrêté": "11/09/2026",
        "Type": "Route barrée",
        "Durée max (j)": "122",
        "description": "Fermeture définitive du passage à niveau n°13",
        "Arrêté": "2026-0084"
      }
    },
    {
      "type": "Feature",
      "geometry": {
        "coordinates": [
          [
            -0.509049,
            44.7195
          ],
          [
            -0.509024,
            44.719526
          ],
          [
            -0.507866,
            44.718693
          ],
          [
            -0.506031,
            44.717275
          ],
          [
            -0.506401,
            44.717062
          ],
          [
            -0.506712,
            44.717401
          ],
          [
            -0.506948,
            44.717446
          ],
          [
            -0.507345,
            44.717492
          ],
          [
            -0.509271,
            44.717984
          ],
          [
            -0.509459,
            44.718117
          ],
          [
            -0.5097,
            44.718334
          ],
          [
            -0.509853,
            44.718426
          ],
          [
            -0.509162,
            44.719361
          ]
        ],
        "type": "LineString"
      },
      "properties": {
        "Date début arrêté": "13/05/2026",
        "Date fin arrêté": "11/09/2026",
        "Type": "Déviation",
        "Durée max (j)": "122",
        "description": "Fermeture définitive du passage à niveau n°13",
        "Arrêté": "2026-0084"
      }
    },
    {
      "type": "Feature",
      "geometry": {
        "coordinates": [
          [
            -0.527963,
            44.734946
          ],
          [
            -0.527601,
            44.734327
          ]
        ],
        "type": "LineString"
      },
      "properties": {
        "description": "Réalisation de forages + stockage machine\n2x3j",
        "Date début arrêté": "20/07/2026",
        "Date fin arrêté": "18/08/2026",
        "Type": "Route barrée",
        "Durée max (j)": "30",
        "Arrêté": "176.2026"
      }
    },
    {
      "type": "Feature",
      "geometry": {
        "coordinates": [
          [
            -0.535645,
            44.748655
          ],
          [
            -0.535455,
            44.748318
          ]
        ],
        "type": "LineString"
      },
      "properties": {
        "description": "Réalisation de forages + stockage machine\n2x3j",
        "Date début arrêté": "13/07/2026",
        "Date fin arrêté": "11/08/2026",
        "Type": "Circulation alternée",
        "Durée max (j)": "30",
        "Arrêté": "165.2026"
      }
    },
    {
      "type": "Feature",
      "geometry": {
        "coordinates": [
          [
            -0.539663,
            44.754922
          ],
          [
            -0.539628,
            44.754821
          ],
          [
            -0.539644,
            44.754722
          ],
          [
            -0.539719,
            44.754657
          ],
          [
            -0.539843,
            44.754589
          ]
        ],
        "type": "LineString"
      },
      "properties": {
        "description": "Réalisation de forages + stockage machine\n2x3j",
        "Date début arrêté": "13/07/2026",
        "Date fin arrêté": "11/08/2026",
        "Type": "Circulation alternée",
        "Durée max (j)": "30",
        "Arrêté": "164.2026"
      }
    },
    {
      "type": "Feature",
      "geometry": {
        "coordinates": [
          [
            -0.529983,
            44.739088
          ],
          [
            -0.529653,
            44.739139
          ]
        ],
        "type": "LineString"
      },
      "properties": {
        "description": "Travaux de création de voirie",
        "Date début arrêté": "22/06/2026",
        "Date fin arrêté": "17/12/2026",
        "Type": "Route barrée",
        "Durée max (j)": "179",
        "Arrêté": "149.2026"
      }
    },
    {
      "type": "Feature",
      "geometry": {
        "coordinates": [
          [
            -0.529983,
            44.739088
          ],
          [
            -0.53008,
            44.739069
          ],
          [
            -0.528224,
            44.735905
          ],
          [
            -0.527462,
            44.734601
          ],
          [
            -0.526614,
            44.733543
          ],
          [
            -0.524318,
            44.736811
          ],
          [
            -0.524136,
            44.73691
          ],
          [
            -0.524576,
            44.737109
          ],
          [
            -0.525123,
            44.737276
          ],
          [
            -0.525799,
            44.73736
          ],
          [
            -0.526024,
            44.737939
          ],
          [
            -0.526271,
            44.73816
          ],
          [
            -0.526067,
            44.738884
          ],
          [
            -0.526786,
            44.739029
          ],
          [
            -0.527666,
            44.739158
          ],
          [
            -0.528782,
            44.73925
          ],
          [
            -0.529653,
            44.739139
          ]
        ],
        "type": "LineString"
      },
      "properties": {
        "description": "Travaux de création de voirie",
        "Date début arrêté": "22/06/2026",
        "Date fin arrêté": "17/12/2026",
        "Type": "Déviation",
        "Durée max (j)": "179",
        "Arrêté": "149.2026"
      }
    },
    {
      "type": "Feature",
      "geometry": {
        "coordinates": [
          [
            -0.535594,
            44.748699
          ],
          [
            -0.535096,
            44.748838
          ],
          [
            -0.534685,
            44.748758
          ]
        ],
        "type": "LineString"
      },
      "properties": {
        "description": "Travaux de création de la voirie",
        "Date début arrêté": "06/07/2026",
        "Date fin arrêté": "24/09/2026",
        "Type": "Route barrée",
        "Durée max (j)": "81",
        "Arrêté": "161.2026"
      }
    },
    {
      "type": "Feature",
      "geometry": {
        "coordinates": [
          [
            -0.515177,
            44.720964
          ],
          [
            -0.515504,
            44.721132
          ],
          [
            -0.515746,
            44.721246
          ]
        ],
        "type": "LineString"
      },
      "properties": {
        "description": "Bedat - Travaux assainissement",
        "Date début arrêté": "01/07/2026",
        "Date fin arrêté": "21/07/2026",
        "Type": "Circulation restreinte",
        "Arrêté": "2026/109"
      }
    },
    {
      "type": "Feature",
      "geometry": {
        "coordinates": [
          [
            -0.509545,
            44.718849
          ],
          [
            -0.509056,
            44.719503
          ],
          [
            -0.508638,
            44.719924
          ]
        ],
        "type": "LineString"
      },
      "properties": {
        "Date début arrêté": "15/07/2026",
        "Date fin arrêté": "07/08/2026",
        "Type": "Circulation alternée",
        "Durée max (j)": "24",
        "description": "Travaux HTA et BT en souterrain",
        "Arrêté": "2026/116"
      }
    },
    {
      "type": "Feature",
      "geometry": {
        "coordinates": [
          [
            -0.509545,
            44.718849
          ],
          [
            -0.509056,
            44.719503
          ],
          [
            -0.508638,
            44.719924
          ]
        ],
        "type": "LineString"
      },
      "properties": {
        "Date début arrêté": "15/07/2026",
        "Date fin arrêté": "07/08/2026",
        "Type": "Circulation alternée",
        "Durée max (j)": "24",
        "description": "Travaux HTA et BT en souterrain",
        "Arrêté": "2026/116"
      }
    },
    {
      "type": "Feature",
      "geometry": {
        "coordinates": [
          [
            -0.520158,
            44.729403
          ],
          [
            -0.519659,
            44.728942
          ],
          [
            -0.519525,
            44.728803
          ],
          [
            -0.518696,
            44.728164
          ],
          [
            -0.518267,
            44.727924
          ]
        ],
        "type": "LineString"
      },
      "properties": {
        "description": "Création d'un ouvrage de franchissement de la voie SNCF et reprise des carrefours",
        "Date début arrêté": "28/07/2025",
        "Date fin arrêté": "20/10/2026",
        "Type": "Limitation vitesse",
        "name": "28.11.2025",
        "Refus": "1296"
      }
    },
    {
      "type": "Feature",
      "geometry": {
        "coordinates": [
          [
            -0.519501,
            44.728782
          ],
          [
            -0.519708,
            44.728629
          ]
        ],
        "type": "LineString"
      },
      "properties": {
        "Marché": "GCOA3",
        "Date début": "2026-04-27",
        "Date fin": "2026-04-27",
        "Arrêté demandé": false,
        "Phase": "2a",
        "Type": "Circulation restreinte"
      }
    },
    {
      "type": "Feature",
      "geometry": {
        "coordinates": [
          [
            -0.519182,
            44.728951
          ],
          [
            -0.51934,
            44.728879
          ],
          [
            -0.5195,
            44.728787
          ]
        ],
        "type": "LineString"
      },
      "properties": {
        "Marché": "GCOA3",
        "Date début": "2026-04-28",
        "Date fin": "2026-05-06",
        "Arrêté demandé": false,
        "Phase": "2b",
        "Type": "Route barrée"
      }
    },
    {
      "type": "Feature",
      "geometry": {
        "coordinates": [
          [
            -0.520322,
            44.729548
          ],
          [
            -0.52004,
            44.729271
          ],
          [
            -0.5195,
            44.728787
          ]
        ],
        "type": "LineString"
      },
      "properties": {
        "Marché": "GCOA3",
        "Date début": "2026-04-28",
        "Date fin": "2026-05-06",
        "Arrêté demandé": false,
        "Phase": "2b",
        "Type": "Circulation alternée"
      }
    },
    {
      "type": "Feature",
      "geometry": {
        "coordinates": [
          [
            -0.520319,
            44.729544
          ],
          [
            -0.52004,
            44.729271
          ],
          [
            -0.5195,
            44.728787
          ],
          [
            -0.519029,
            44.72842
          ]
        ],
        "type": "LineString"
      },
      "properties": {
        "Marché": "GCOA3",
        "Date début": "2026-05-07",
        "Date fin": "2026-05-27",
        "Arrêté demandé": false,
        "Phase": "2c",
        "Type": "Circulation alternée"
      }
    },
    {
      "type": "Feature",
      "geometry": {
        "coordinates": [
          [
            -0.519184,
            44.728951
          ],
          [
            -0.51934,
            44.728879
          ],
          [
            -0.5195,
            44.728787
          ]
        ],
        "type": "LineString"
      },
      "properties": {
        "Marché": "GCOA3",
        "Date début": "2026-05-07",
        "Date fin": "2026-05-27",
        "Arrêté demandé": false,
        "Phase": "2c",
        "Type": "Route barrée"
      }
    },
    {
      "type": "Feature",
      "geometry": {
        "type": "Polygon",
        "coordinates": [
          [
            [
              -0.501593,
              44.739995
            ],
            [
              -0.502291,
              44.738456
            ],
            [
              -0.502177,
              44.738051
            ],
            [
              -0.500681,
              44.736868
            ],
            [
              -0.501035,
              44.736519
            ],
            [
              -0.501063,
              44.73598
            ],
            [
              -0.499938,
              44.734009
            ],
            [
              -0.499317,
              44.733421
            ],
            [
              -0.496943,
              44.731141
            ],
            [
              -0.497231,
              44.730955
            ],
            [
              -0.497301,
              44.730781
            ],
            [
              -0.497841,
              44.730565
            ],
            [
              -0.498406,
              44.730413
            ],
            [
              -0.498739,
              44.730465
            ],
            [
              -0.499082,
              44.730452
            ],
            [
              -0.499336,
              44.730347
            ],
            [
              -0.499469,
              44.730235
            ],
            [
              -0.499639,
              44.730015
            ],
            [
              -0.499761,
              44.729718
            ],
            [
              -0.499968,
              44.729652
            ],
            [
              -0.500226,
              44.729436
            ],
            [
              -0.500352,
              44.729376
            ],
            [
              -0.500611,
              44.72945
            ],
            [
              -0.500776,
              44.729454
            ],
            [
              -0.500973,
              44.729404
            ],
            [
              -0.501423,
              44.729245
            ],
            [
              -0.502049,
              44.729141
            ],
            [
              -0.502455,
              44.72895
            ],
            [
              -0.502504,
              44.728767
            ],
            [
              -0.502756,
              44.728678
            ],
            [
              -0.503247,
              44.728588
            ],
            [
              -0.503598,
              44.72859
            ],
            [
              -0.503903,
              44.728139
            ],
            [
              -0.504016,
              44.728044
            ],
            [
              -0.504256,
              44.727951
            ],
            [
              -0.504725,
              44.727886
            ],
            [
              -0.504917,
              44.727783
            ],
            [
              -0.50522,
              44.727667
            ],
            [
              -0.505345,
              44.727694
            ],
            [
              -0.505727,
              44.727921
            ],
            [
              -0.506561,
              44.727799
            ],
            [
              -0.507473,
              44.72768
            ],
            [
              -0.50854,
              44.727562
            ],
            [
              -0.50899,
              44.727523
            ],
            [
              -0.509389,
              44.727462
            ],
            [
              -0.510017,
              44.727221
            ],
            [
              -0.510278,
              44.727149
            ],
            [
              -0.510798,
              44.727051
            ],
            [
              -0.511551,
              44.726863
            ],
            [
              -0.51351,
              44.726712
            ],
            [
              -0.515527,
              44.72666
            ],
            [
              -0.516467,
              44.726545
            ],
            [
              -0.52158,
              44.725297
            ],
            [
              -0.525282,
              44.723742
            ],
            [
              -0.526921,
              44.723345
            ],
            [
              -0.526933,
              44.723584
            ],
            [
              -0.527136,
              44.723847
            ],
            [
              -0.527686,
              44.7239
            ],
            [
              -0.528227,
              44.723598
            ],
            [
              -0.528811,
              44.723308
            ],
            [
              -0.529359,
              44.723121
            ],
            [
              -0.529672,
              44.723031
            ],
            [
              -0.529893,
              44.723012
            ],
            [
              -0.530028,
              44.722921
            ],
            [
              -0.530902,
              44.723709
            ],
            [
              -0.5325,
              44.725171
            ],
            [
              -0.532685,
              44.725368
            ],
            [
              -0.533113,
              44.725776
            ],
            [
              -0.533747,
              44.726406
            ],
            [
              -0.533981,
              44.726703
            ],
            [
              -0.534328,
              44.72694
            ],
            [
              -0.534659,
              44.727211
            ],
            [
              -0.534978,
              44.727594
            ],
            [
              -0.535474,
              44.728295
            ],
            [
              -0.535876,
              44.728922
            ],
            [
              -0.536156,
              44.729339
            ],
            [
              -0.536304,
              44.729378
            ],
            [
              -0.536492,
              44.729564
            ],
            [
              -0.536939,
              44.73014
            ],
            [
              -0.537456,
              44.730645
            ],
            [
              -0.537941,
              44.731058
            ],
            [
              -0.538843,
              44.731708
            ],
            [
              -0.539005,
              44.731792
            ],
            [
              -0.539724,
              44.732454
            ],
            [
              -0.540379,
              44.733225
            ],
            [
              -0.54051,
              44.733453
            ],
            [
              -0.540575,
              44.733762
            ],
            [
              -0.540542,
              44.73441
            ],
            [
              -0.540573,
              44.735495
            ],
            [
              -0.542069,
              44.735123
            ],
            [
              -0.542188,
              44.735471
            ],
            [
              -0.542343,
              44.735772
            ],
            [
              -0.542675,
              44.736331
            ],
            [
              -0.543012,
              44.736763
            ],
            [
              -0.543195,
              44.736642
            ],
            [
              -0.543553,
              44.736479
            ],
            [
              -0.543879,
              44.736434
            ],
            [
              -0.544056,
              44.73742
            ],
            [
              -0.543578,
              44.737493
            ],
            [
              -0.543612,
              44.737855
            ],
            [
              -0.543737,
              44.738571
            ],
            [
              -0.543833,
              44.738982
            ],
            [
              -0.544396,
              44.739121
            ],
            [
              -0.545018,
              44.739177
            ],
            [
              -0.545212,
              44.739174
            ],
            [
              -0.545337,
              44.739522
            ],
            [
              -0.545334,
              44.739778
            ],
            [
              -0.545253,
              44.739996
            ],
            [
              -0.5452,
              44.741346
            ],
            [
              -0.545714,
              44.741293
            ],
            [
              -0.54574,
              44.742146
            ],
            [
              -0.545382,
              44.7423
            ],
            [
              -0.545487,
              44.743249
            ],
            [
              -0.545775,
              44.743241
            ],
            [
              -0.546313,
              44.743262
            ],
            [
              -0.546893,
              44.74316
            ],
            [
              -0.547394,
              44.743208
            ],
            [
              -0.547775,
              44.743215
            ],
            [
              -0.548716,
              44.743194
            ],
            [
              -0.549297,
              44.743215
            ],
            [
              -0.549906,
              44.743203
            ],
            [
              -0.550241,
              44.743097
            ],
            [
              -0.550426,
              44.743071
            ],
            [
              -0.550884,
              44.742963
            ],
            [
              -0.55188,
              44.742817
            ],
            [
              -0.552122,
              44.742837
            ],
            [
              -0.552882,
              44.743023
            ],
            [
              -0.55307,
              44.74303
            ],
            [
              -0.553808,
              44.742912
            ],
            [
              -0.554937,
              44.742693
            ],
            [
              -0.555639,
              44.742548
            ],
            [
              -0.556198,
              44.742416
            ],
            [
              -0.556718,
              44.742246
            ],
            [
              -0.556973,
              44.742115
            ],
            [
              -0.557752,
              44.741673
            ],
            [
              -0.558603,
              44.742315
            ],
            [
              -0.560578,
              44.740987
            ],
            [
              -0.560979,
              44.740691
            ],
            [
              -0.561661,
              44.740222
            ],
            [
              -0.561961,
              44.741004
            ],
            [
              -0.562358,
              44.741904
            ],
            [
              -0.562437,
              44.742061
            ],
            [
              -0.56283,
              44.743009
            ],
            [
              -0.562874,
              44.743161
            ],
            [
              -0.56311,
              44.743796
            ],
            [
              -0.563224,
              44.74414
            ],
            [
              -0.563689,
              44.746031
            ],
            [
              -0.563861,
              44.7467
            ],
            [
              -0.563881,
              44.74683
            ],
            [
              -0.564215,
              44.747824
            ],
            [
              -0.56457,
              44.748978
            ],
            [
              -0.564683,
              44.749304
            ],
            [
              -0.56503,
              44.750125
            ],
            [
              -0.565115,
              44.750285
            ],
            [
              -0.565472,
              44.750653
            ],
            [
              -0.565713,
              44.750971
            ],
            [
              -0.56596,
              44.751188
            ],
            [
              -0.566059,
              44.751312
            ],
            [
              -0.566164,
              44.751636
            ],
            [
              -0.56627,
              44.752282
            ],
            [
              -0.566259,
              44.752482
            ],
            [
              -0.566148,
              44.752661
            ],
            [
              -0.565793,
              44.753039
            ],
            [
              -0.565516,
              44.753038
            ],
            [
              -0.564461,
              44.753134
            ],
            [
              -0.563696,
              44.753243
            ],
            [
              -0.563066,
              44.753258
            ],
            [
              -0.562225,
              44.753362
            ],
            [
              -0.561005,
              44.753402
            ],
            [
              -0.560738,
              44.753423
            ],
            [
              -0.560532,
              44.753474
            ],
            [
              -0.559793,
              44.753756
            ],
            [
              -0.558935,
              44.75407
            ],
            [
              -0.558392,
              44.754235
            ],
            [
              -0.55791,
              44.754334
            ],
            [
              -0.55665,
              44.754462
            ],
            [
              -0.556923,
              44.755021
            ],
            [
              -0.557116,
              44.755379
            ],
            [
              -0.55766,
              44.756454
            ],
            [
              -0.557804,
              44.756895
            ],
            [
              -0.557376,
              44.757001
            ],
            [
              -0.557123,
              44.757044
            ],
            [
              -0.556501,
              44.757263
            ],
            [
              -0.556053,
              44.757483
            ],
            [
              -0.555288,
              44.75789
            ],
            [
              -0.554851,
              44.758414
            ],
            [
              -0.554179,
              44.758743
            ],
            [
              -0.554018,
              44.758418
            ],
            [
              -0.551725,
              44.759027
            ],
            [
              -0.550658,
              44.75903
            ],
            [
              -0.550195,
              44.758998
            ],
            [
              -0.550005,
              44.758953
            ],
            [
              -0.549632,
              44.758937
            ],
            [
              -0.548906,
              44.75882
            ],
            [
              -0.548652,
              44.758795
            ],
            [
              -0.548459,
              44.759364
            ],
            [
              -0.548402,
              44.759409
            ],
            [
              -0.547864,
              44.759474
            ],
            [
              -0.547345,
              44.759742
            ],
            [
              -0.546802,
              44.759915
            ],
            [
              -0.545783,
              44.760126
            ],
            [
              -0.544609,
              44.760821
            ],
            [
              -0.544425,
              44.760789
            ],
            [
              -0.544195,
              44.760925
            ],
            [
              -0.544037,
              44.760963
            ],
            [
              -0.543737,
              44.760955
            ],
            [
              -0.543125,
              44.761079
            ],
            [
              -0.542339,
              44.761196
            ],
            [
              -0.541838,
              44.76134
            ],
            [
              -0.541213,
              44.761426
            ],
            [
              -0.540475,
              44.761445
            ],
            [
              -0.540122,
              44.76142
            ],
            [
              -0.539982,
              44.761435
            ],
            [
              -0.53956,
              44.761571
            ],
            [
              -0.539414,
              44.761658
            ],
            [
              -0.539306,
              44.761829
            ],
            [
              -0.539186,
              44.761921
            ],
            [
              -0.538865,
              44.762009
            ],
            [
              -0.538866,
              44.762317
            ],
            [
              -0.538631,
              44.762471
            ],
            [
              -0.538559,
              44.762568
            ],
            [
              -0.538532,
              44.762839
            ],
            [
              -0.53841,
              44.762901
            ],
            [
              -0.538046,
              44.762818
            ],
            [
              -0.537798,
              44.762884
            ],
            [
              -0.537393,
              44.763204
            ],
            [
              -0.537494,
              44.76338
            ],
            [
              -0.537494,
              44.763521
            ],
            [
              -0.537284,
              44.763663
            ],
            [
              -0.537381,
              44.763868
            ],
            [
              -0.537234,
              44.764113
            ],
            [
              -0.537102,
              44.764524
            ],
            [
              -0.536815,
              44.764618
            ],
            [
              -0.536758,
              44.764667
            ],
            [
              -0.536641,
              44.764964
            ],
            [
              -0.536454,
              44.765284
            ],
            [
              -0.536362,
              44.765344
            ],
            [
              -0.53583,
              44.765572
            ],
            [
              -0.53573,
              44.765755
            ],
            [
              -0.535529,
              44.765923
            ],
            [
              -0.535491,
              44.765996
            ],
            [
              -0.535711,
              44.766237
            ],
            [
              -0.535624,
              44.766445
            ],
            [
              -0.535324,
              44.766601
            ],
            [
              -0.534966,
              44.766841
            ],
            [
              -0.535012,
              44.767001
            ],
            [
              -0.535149,
              44.767163
            ],
            [
              -0.535218,
              44.767313
            ],
            [
              -0.535155,
              44.767531
            ],
            [
              -0.535234,
              44.767723
            ],
            [
              -0.535248,
              44.767867
            ],
            [
              -0.535137,
              44.768103
            ],
            [
              -0.534849,
              44.768156
            ],
            [
              -0.534833,
              44.76845
            ],
            [
              -0.534493,
              44.768652
            ],
            [
              -0.53387,
              44.768529
            ],
            [
              -0.533482,
              44.768359
            ],
            [
              -0.533087,
              44.768055
            ],
            [
              -0.532354,
              44.767934
            ],
            [
              -0.529614,
              44.768063
            ],
            [
              -0.529441,
              44.767645
            ],
            [
              -0.527216,
              44.767388
            ],
            [
              -0.526939,
              44.767413
            ],
            [
              -0.526594,
              44.767558
            ],
            [
              -0.526001,
              44.767545
            ],
            [
              -0.525687,
              44.767581
            ],
            [
              -0.525664,
              44.767891
            ],
            [
              -0.525442,
              44.768178
            ],
            [
              -0.525172,
              44.768298
            ],
            [
              -0.524659,
              44.768311
            ],
            [
              -0.52437,
              44.768438
            ],
            [
              -0.52403,
              44.768741
            ],
            [
              -0.523997,
              44.769277
            ],
            [
              -0.524093,
              44.769584
            ],
            [
              -0.523955,
              44.769705
            ],
            [
              -0.523859,
              44.769952
            ],
            [
              -0.5237,
              44.770016
            ],
            [
              -0.523211,
              44.769914
            ],
            [
              -0.522819,
              44.769794
            ],
            [
              -0.522478,
              44.769633
            ],
            [
              -0.522036,
              44.769536
            ],
            [
              -0.521666,
              44.769305
            ],
            [
              -0.520827,
              44.769434
            ],
            [
              -0.520402,
              44.769518
            ],
            [
              -0.519416,
              44.769751
            ],
            [
              -0.518316,
              44.769752
            ],
            [
              -0.517827,
              44.769818
            ],
            [
              -0.517586,
              44.770041
            ],
            [
              -0.517432,
              44.770243
            ],
            [
              -0.51711,
              44.770359
            ],
            [
              -0.516335,
              44.770532
            ],
            [
              -0.516208,
              44.770636
            ],
            [
              -0.515844,
              44.770325
            ],
            [
              -0.515387,
              44.769996
            ],
            [
              -0.513974,
              44.769472
            ],
            [
              -0.511484,
              44.769367
            ],
            [
              -0.511432,
              44.768365
            ],
            [
              -0.511384,
              44.766378
            ],
            [
              -0.511384,
              44.765055
            ],
            [
              -0.511384,
              44.764364
            ],
            [
              -0.511714,
              44.760913
            ],
            [
              -0.511879,
              44.759484
            ],
            [
              -0.511896,
              44.757951
            ],
            [
              -0.511294,
              44.755968
            ],
            [
              -0.511456,
              44.754189
            ],
            [
              -0.511658,
              44.752614
            ],
            [
              -0.512014,
              44.751294
            ],
            [
              -0.512192,
              44.749606
            ],
            [
              -0.512239,
              44.748478
            ],
            [
              -0.512175,
              44.747241
            ],
            [
              -0.512029,
              44.746443
            ],
            [
              -0.511723,
              44.745662
            ],
            [
              -0.511199,
              44.74482
            ],
            [
              -0.510012,
              44.743483
            ],
            [
              -0.509198,
              44.742843
            ],
            [
              -0.507983,
              44.742066
            ],
            [
              -0.50677,
              44.741319
            ],
            [
              -0.505245,
              44.74063
            ],
            [
              -0.503798,
              44.740175
            ],
            [
              -0.501593,
              44.739995
            ]
          ]
        ]
      },
      "properties": {
        "nom": "Cadaujac",
        "code": "33080",
        "codeDepartement": "33",
        "siren": "213300809",
        "codeEpci": "243301264",
        "codeRegion": "75",
        "codesPostaux": [
          "33140"
        ],
        "population": 6784
      }
    },
    {
      "type": "Feature",
      "geometry": {
        "type": "Polygon",
        "coordinates": [
          [
            [
              -0.509206,
              44.692334
            ],
            [
              -0.511019,
              44.69363
            ],
            [
              -0.511585,
              44.694455
            ],
            [
              -0.511949,
              44.694421
            ],
            [
              -0.512067,
              44.693968
            ],
            [
              -0.512157,
              44.693828
            ],
            [
              -0.512203,
              44.693575
            ],
            [
              -0.512383,
              44.693409
            ],
            [
              -0.512516,
              44.693164
            ],
            [
              -0.51263,
              44.693032
            ],
            [
              -0.513399,
              44.692369
            ],
            [
              -0.513841,
              44.692026
            ],
            [
              -0.51407,
              44.691948
            ],
            [
              -0.514213,
              44.691855
            ],
            [
              -0.514536,
              44.691581
            ],
            [
              -0.514842,
              44.691472
            ],
            [
              -0.514962,
              44.691309
            ],
            [
              -0.515311,
              44.691188
            ],
            [
              -0.517721,
              44.6927
            ],
            [
              -0.517983,
              44.69277
            ],
            [
              -0.518124,
              44.692487
            ],
            [
              -0.519245,
              44.692944
            ],
            [
              -0.520124,
              44.693325
            ],
            [
              -0.520228,
              44.693342
            ],
            [
              -0.520972,
              44.693345
            ],
            [
              -0.523684,
              44.69332
            ],
            [
              -0.524435,
              44.69321
            ],
            [
              -0.525247,
              44.693055
            ],
            [
              -0.527436,
              44.692422
            ],
            [
              -0.528441,
              44.69235
            ],
            [
              -0.529463,
              44.692594
            ],
            [
              -0.530557,
              44.693015
            ],
            [
              -0.532431,
              44.694137
            ],
            [
              -0.533142,
              44.694478
            ],
            [
              -0.534055,
              44.694546
            ],
            [
              -0.535393,
              44.695123
            ],
            [
              -0.536167,
              44.695438
            ],
            [
              -0.538433,
              44.69634
            ],
            [
              -0.538983,
              44.696484
            ],
            [
              -0.540378,
              44.696822
            ],
            [
              -0.540572,
              44.696834
            ],
            [
              -0.543274,
              44.697652
            ],
            [
              -0.54417,
              44.697898
            ],
            [
              -0.546762,
              44.698932
            ],
            [
              -0.54605,
              44.699204
            ],
            [
              -0.544646,
              44.699717
            ],
            [
              -0.544468,
              44.699745
            ],
            [
              -0.543685,
              44.70002
            ],
            [
              -0.542728,
              44.700343
            ],
            [
              -0.541982,
              44.700615
            ],
            [
              -0.541105,
              44.700916
            ],
            [
              -0.540481,
              44.701109
            ],
            [
              -0.540302,
              44.701196
            ],
            [
              -0.540087,
              44.701399
            ],
            [
              -0.539486,
              44.701884
            ],
            [
              -0.538834,
              44.702459
            ],
            [
              -0.537798,
              44.703342
            ],
            [
              -0.537653,
              44.703485
            ],
            [
              -0.537338,
              44.703236
            ],
            [
              -0.536756,
              44.7029
            ],
            [
              -0.536259,
              44.702596
            ],
            [
              -0.535477,
              44.703763
            ],
            [
              -0.535334,
              44.70424
            ],
            [
              -0.534967,
              44.704474
            ],
            [
              -0.53353,
              44.704736
            ],
            [
              -0.532968,
              44.705111
            ],
            [
              -0.532669,
              44.705434
            ],
            [
              -0.532767,
              44.706106
            ],
            [
              -0.532855,
              44.706599
            ],
            [
              -0.532297,
              44.706794
            ],
            [
              -0.531933,
              44.707073
            ],
            [
              -0.531123,
              44.707274
            ],
            [
              -0.531267,
              44.7084
            ],
            [
              -0.530748,
              44.708512
            ],
            [
              -0.530564,
              44.708702
            ],
            [
              -0.530336,
              44.708789
            ],
            [
              -0.53007,
              44.708846
            ],
            [
              -0.529545,
              44.709042
            ],
            [
              -0.528943,
              44.709199
            ],
            [
              -0.528795,
              44.709391
            ],
            [
              -0.528496,
              44.709585
            ],
            [
              -0.527576,
              44.709776
            ],
            [
              -0.527275,
              44.709905
            ],
            [
              -0.527007,
              44.709952
            ],
            [
              -0.525772,
              44.71024
            ],
            [
              -0.523418,
              44.710579
            ],
            [
              -0.523059,
              44.710709
            ],
            [
              -0.522773,
              44.710777
            ],
            [
              -0.522512,
              44.710791
            ],
            [
              -0.522815,
              44.712882
            ],
            [
              -0.523993,
              44.7152
            ],
            [
              -0.523937,
              44.715336
            ],
            [
              -0.522172,
              44.716165
            ],
            [
              -0.522382,
              44.716469
            ],
            [
              -0.522809,
              44.717128
            ],
            [
              -0.523295,
              44.717853
            ],
            [
              -0.524145,
              44.719162
            ],
            [
              -0.52471,
              44.719988
            ],
            [
              -0.525052,
              44.72053
            ],
            [
              -0.525572,
              44.721312
            ],
            [
              -0.52606,
              44.722067
            ],
            [
              -0.526921,
              44.723345
            ],
            [
              -0.525282,
              44.723742
            ],
            [
              -0.52158,
              44.725297
            ],
            [
              -0.516467,
              44.726545
            ],
            [
              -0.515527,
              44.72666
            ],
            [
              -0.51351,
              44.726712
            ],
            [
              -0.511551,
              44.726863
            ],
            [
              -0.510798,
              44.727051
            ],
            [
              -0.510278,
              44.727149
            ],
            [
              -0.510017,
              44.727221
            ],
            [
              -0.509389,
              44.727462
            ],
            [
              -0.50899,
              44.727523
            ],
            [
              -0.50854,
              44.727562
            ],
            [
              -0.507473,
              44.72768
            ],
            [
              -0.506561,
              44.727799
            ],
            [
              -0.505727,
              44.727921
            ],
            [
              -0.505345,
              44.727694
            ],
            [
              -0.50522,
              44.727667
            ],
            [
              -0.504917,
              44.727783
            ],
            [
              -0.504725,
              44.727886
            ],
            [
              -0.504256,
              44.727951
            ],
            [
              -0.504016,
              44.728044
            ],
            [
              -0.503903,
              44.728139
            ],
            [
              -0.503598,
              44.72859
            ],
            [
              -0.503247,
              44.728588
            ],
            [
              -0.502756,
              44.728678
            ],
            [
              -0.502504,
              44.728767
            ],
            [
              -0.502455,
              44.72895
            ],
            [
              -0.502049,
              44.729141
            ],
            [
              -0.501423,
              44.729245
            ],
            [
              -0.500973,
              44.729404
            ],
            [
              -0.500776,
              44.729454
            ],
            [
              -0.500611,
              44.72945
            ],
            [
              -0.500352,
              44.729376
            ],
            [
              -0.500226,
              44.729436
            ],
            [
              -0.499968,
              44.729652
            ],
            [
              -0.499761,
              44.729718
            ],
            [
              -0.499639,
              44.730015
            ],
            [
              -0.499469,
              44.730235
            ],
            [
              -0.499336,
              44.730347
            ],
            [
              -0.499082,
              44.730452
            ],
            [
              -0.498739,
              44.730465
            ],
            [
              -0.498406,
              44.730413
            ],
            [
              -0.497841,
              44.730565
            ],
            [
              -0.497301,
              44.730781
            ],
            [
              -0.497231,
              44.730955
            ],
            [
              -0.496943,
              44.731141
            ],
            [
              -0.499317,
              44.733421
            ],
            [
              -0.499938,
              44.734009
            ],
            [
              -0.501063,
              44.73598
            ],
            [
              -0.501035,
              44.736519
            ],
            [
              -0.500681,
              44.736868
            ],
            [
              -0.500511,
              44.736787
            ],
            [
              -0.500032,
              44.736467
            ],
            [
              -0.499624,
              44.736272
            ],
            [
              -0.49936,
              44.736078
            ],
            [
              -0.498859,
              44.735873
            ],
            [
              -0.498334,
              44.735681
            ],
            [
              -0.497793,
              44.735505
            ],
            [
              -0.496125,
              44.735113
            ],
            [
              -0.495593,
              44.735166
            ],
            [
              -0.495595,
              44.735211
            ],
            [
              -0.49528,
              44.735219
            ],
            [
              -0.494725,
              44.734778
            ],
            [
              -0.493811,
              44.734515
            ],
            [
              -0.492958,
              44.734472
            ],
            [
              -0.492395,
              44.734321
            ],
            [
              -0.491907,
              44.734151
            ],
            [
              -0.491187,
              44.734021
            ],
            [
              -0.489833,
              44.733857
            ],
            [
              -0.489741,
              44.733779
            ],
            [
              -0.489066,
              44.733434
            ],
            [
              -0.488103,
              44.733293
            ],
            [
              -0.487508,
              44.733236
            ],
            [
              -0.48723,
              44.733125
            ],
            [
              -0.487283,
              44.732979
            ],
            [
              -0.487539,
              44.732611
            ],
            [
              -0.487904,
              44.732251
            ],
            [
              -0.488748,
              44.731444
            ],
            [
              -0.489521,
              44.730628
            ],
            [
              -0.489995,
              44.73017
            ],
            [
              -0.490105,
              44.730043
            ],
            [
              -0.490073,
              44.729852
            ],
            [
              -0.490091,
              44.729558
            ],
            [
              -0.489905,
              44.729249
            ],
            [
              -0.489675,
              44.728795
            ],
            [
              -0.489631,
              44.728574
            ],
            [
              -0.489621,
              44.728298
            ],
            [
              -0.489554,
              44.727728
            ],
            [
              -0.489612,
              44.727409
            ],
            [
              -0.489649,
              44.72703
            ],
            [
              -0.489287,
              44.726521
            ],
            [
              -0.489066,
              44.726323
            ],
            [
              -0.488867,
              44.726243
            ],
            [
              -0.488243,
              44.726114
            ],
            [
              -0.488101,
              44.72604
            ],
            [
              -0.487466,
              44.725432
            ],
            [
              -0.486858,
              44.725206
            ],
            [
              -0.486688,
              44.725112
            ],
            [
              -0.486547,
              44.724932
            ],
            [
              -0.485608,
              44.724476
            ],
            [
              -0.485094,
              44.72395
            ],
            [
              -0.484898,
              44.723765
            ],
            [
              -0.484409,
              44.723262
            ],
            [
              -0.48426,
              44.723149
            ],
            [
              -0.483818,
              44.723115
            ],
            [
              -0.483679,
              44.72306
            ],
            [
              -0.483505,
              44.722898
            ],
            [
              -0.483295,
              44.722859
            ],
            [
              -0.483324,
              44.722652
            ],
            [
              -0.48315,
              44.72254
            ],
            [
              -0.482803,
              44.722524
            ],
            [
              -0.482671,
              44.722455
            ],
            [
              -0.482512,
              44.722263
            ],
            [
              -0.482409,
              44.72219
            ],
            [
              -0.482161,
              44.722144
            ],
            [
              -0.481961,
              44.722015
            ],
            [
              -0.481518,
              44.721847
            ],
            [
              -0.481121,
              44.721818
            ],
            [
              -0.480925,
              44.721762
            ],
            [
              -0.480637,
              44.721637
            ],
            [
              -0.480299,
              44.721606
            ],
            [
              -0.480048,
              44.721642
            ],
            [
              -0.479566,
              44.721512
            ],
            [
              -0.479109,
              44.721505
            ],
            [
              -0.478911,
              44.721546
            ],
            [
              -0.478621,
              44.721503
            ],
            [
              -0.478497,
              44.721387
            ],
            [
              -0.478219,
              44.721194
            ],
            [
              -0.47855,
              44.720906
            ],
            [
              -0.478516,
              44.720231
            ],
            [
              -0.478683,
              44.719777
            ],
            [
              -0.47905,
              44.719543
            ],
            [
              -0.480372,
              44.719239
            ],
            [
              -0.480672,
              44.718916
            ],
            [
              -0.480787,
              44.718688
            ],
            [
              -0.481644,
              44.718172
            ],
            [
              -0.481694,
              44.7179
            ],
            [
              -0.481325,
              44.717255
            ],
            [
              -0.481549,
              44.717154
            ],
            [
              -0.481676,
              44.716999
            ],
            [
              -0.481776,
              44.716772
            ],
            [
              -0.481889,
              44.716323
            ],
            [
              -0.481926,
              44.715891
            ],
            [
              -0.482389,
              44.715305
            ],
            [
              -0.482721,
              44.714775
            ],
            [
              -0.483017,
              44.714647
            ],
            [
              -0.483585,
              44.714525
            ],
            [
              -0.483985,
              44.714462
            ],
            [
              -0.484898,
              44.713786
            ],
            [
              -0.485404,
              44.713297
            ],
            [
              -0.486739,
              44.712047
            ],
            [
              -0.486975,
              44.711573
            ],
            [
              -0.487592,
              44.710721
            ],
            [
              -0.488072,
              44.71032
            ],
            [
              -0.488237,
              44.710243
            ],
            [
              -0.489258,
              44.709846
            ],
            [
              -0.490189,
              44.709509
            ],
            [
              -0.490464,
              44.70939
            ],
            [
              -0.490649,
              44.709256
            ],
            [
              -0.491151,
              44.708834
            ],
            [
              -0.491929,
              44.707577
            ],
            [
              -0.492049,
              44.707472
            ],
            [
              -0.492487,
              44.706973
            ],
            [
              -0.493053,
              44.706411
            ],
            [
              -0.493347,
              44.705975
            ],
            [
              -0.494411,
              44.704992
            ],
            [
              -0.494705,
              44.704759
            ],
            [
              -0.494988,
              44.704492
            ],
            [
              -0.495658,
              44.704088
            ],
            [
              -0.496297,
              44.703678
            ],
            [
              -0.497925,
              44.70259
            ],
            [
              -0.498908,
              44.701954
            ],
            [
              -0.499604,
              44.701478
            ],
            [
              -0.500179,
              44.700957
            ],
            [
              -0.500699,
              44.700522
            ],
            [
              -0.500974,
              44.700115
            ],
            [
              -0.501356,
              44.69977
            ],
            [
              -0.501697,
              44.699405
            ],
            [
              -0.501838,
              44.699176
            ],
            [
              -0.501352,
              44.698921
            ],
            [
              -0.499491,
              44.69773
            ],
            [
              -0.497519,
              44.696755
            ],
            [
              -0.496958,
              44.696207
            ],
            [
              -0.496647,
              44.69592
            ],
            [
              -0.49781,
              44.695091
            ],
            [
              -0.497732,
              44.694541
            ],
            [
              -0.497728,
              44.694223
            ],
            [
              -0.497753,
              44.694026
            ],
            [
              -0.498321,
              44.693862
            ],
            [
              -0.498287,
              44.693737
            ],
            [
              -0.498386,
              44.693547
            ],
            [
              -0.498477,
              44.693502
            ],
            [
              -0.498813,
              44.693456
            ],
            [
              -0.499005,
              44.693325
            ],
            [
              -0.49997,
              44.693107
            ],
            [
              -0.500285,
              44.693015
            ],
            [
              -0.501689,
              44.692766
            ],
            [
              -0.501752,
              44.692581
            ],
            [
              -0.50275,
              44.692627
            ],
            [
              -0.503982,
              44.692694
            ],
            [
              -0.504901,
              44.692769
            ],
            [
              -0.50548,
              44.692843
            ],
            [
              -0.506447,
              44.693122
            ],
            [
              -0.507762,
              44.693472
            ],
            [
              -0.508518,
              44.692847
            ],
            [
              -0.508806,
              44.69266
            ],
            [
              -0.509206,
              44.692334
            ]
          ]
        ]
      },
      "properties": {
        "nom": "Saint-Médard-d'Eyrans",
        "code": "33448",
        "codeDepartement": "33",
        "siren": "213304488",
        "codeEpci": "243301264",
        "codeRegion": "75",
        "codesPostaux": [
          "33650"
        ],
        "population": 3361,
        "_umap_options": {
          "mask": false,
          "fill": false,
          "interactive": false
        }
      }
    },
    {
      "type": "Feature",
      "geometry": {
        "coordinates": [
          -0.540234,
          44.75617
        ],
        "type": "Point"
      },
      "properties": {
        "name": "PK 8",
        "_umap_options": {
          "iconClass": "Drop",
          "iconUrl": "8"
        }
      }
    },
    {
      "type": "Feature",
      "geometry": {
        "coordinates": [
          -0.535305,
          44.747762
        ],
        "type": "Point"
      },
      "properties": {
        "name": "PK 9",
        "_umap_options": {
          "iconClass": "Drop",
          "iconUrl": "9"
        }
      }
    },
    {
      "type": "Feature",
      "geometry": {
        "type": "Point",
        "coordinates": [
          -0.530338,
          44.73948
        ]
      },
      "properties": {
        "name": "PK 10",
        "_umap_options": {
          "iconClass": "Drop",
          "iconUrl": "10"
        }
      }
    },
    {
      "type": "Feature",
      "geometry": {
        "type": "Point",
        "coordinates": [
          -0.524711,
          44.731718
        ]
      },
      "properties": {
        "name": "PK 11",
        "_umap_options": {
          "iconClass": "Drop",
          "iconUrl": "11"
        }
      }
    },
    {
      "type": "Feature",
      "geometry": {
        "coordinates": [
          -0.516168,
          44.724905
        ],
        "type": "Point"
      },
      "properties": {
        "name": "PK 12",
        "_umap_options": {
          "iconClass": "Drop",
          "iconUrl": "12",
          "showLabel": null
        }
      }
    },
    {
      "type": "Feature",
      "geometry": {
        "coordinates": [
          -0.507141,
          44.71793
        ],
        "type": "Point"
      },
      "properties": {
        "name": "PK 13",
        "_umap_options": {
          "iconClass": "Drop",
          "iconUrl": "13"
        }
      }
    },
    {
      "type": "Feature",
      "geometry": {
        "coordinates": [
          -0.53998,
          44.755745
        ],
        "type": "Point"
      },
      "properties": {
        "_umap_options": {
          "iconUrl": "PN 9",
          "color": "Purple"
        },
        "name": "PN 9",
        "description": "Fermeture OCP :\n1 : 19/04 au 22/04\n2 : 08/05 au 11/05\n3 : 28/05 au 01/06"
      }
    },
    {
      "type": "Feature",
      "geometry": {
        "coordinates": [
          -0.536426,
          44.749669
        ],
        "type": "Point"
      },
      "properties": {
        "_umap_options": {
          "iconUrl": "PN 10",
          "color": "Purple"
        },
        "name": "PN 10",
        "description": "Fermeture OCP :\n1 : 19/04 au 22/04 (peut être fermé si ETF travaille)\n2 : 08/05 au 11/05 (a confirmer)"
      }
    },
    {
      "type": "Feature",
      "geometry": {
        "coordinates": [
          -0.53138,
          44.741029
        ],
        "type": "Point"
      },
      "properties": {
        "_umap_options": {
          "iconUrl": "PN 11",
          "color": "Purple"
        },
        "name": "PN 11",
        "description": "Fermeture OCP :\n1 : 19/04 au 22/04 (entrée/accès des engins chantiers possible)\n3 : 28/05 au 01/06 (Pra des Genêts)"
      }
    },
    {
      "type": "Feature",
      "geometry": {
        "coordinates": [
          -0.526646,
          44.733307
        ],
        "type": "Point"
      },
      "properties": {
        "_umap_options": {
          "iconUrl": "PN 12",
          "color": "Purple"
        },
        "name": "PN 12"
      }
    },
    {
      "type": "Feature",
      "geometry": {
        "coordinates": [
          -0.509099,
          44.71948
        ],
        "type": "Point"
      },
      "properties": {
        "_umap_options": {
          "iconUrl": "PN 13",
          "color": "Purple"
        },
        "name": "PN 13"
      }
    },
    {
      "type": "Feature",
      "geometry": {
        "coordinates": [
          -0.506178,
          44.717201
        ],
        "type": "Point"
      },
      "properties": {
        "_umap_options": {
          "iconUrl": "PN 14",
          "color": "Purple"
        },
        "name": "PN 14"
      }
    }
  ]
}