{"type":"FeatureCollection","features":[{"type":"Feature","geometry":{"type":"LineString","coordinates":[[-0.514479,44.720557,0],[-0.515139,44.720877,0],[-0.515123,44.720969,0]]},"properties":{"Type":"Circulation alternée","Durée max (j)":"14","Marché":null,"Date début":"2026-07-23","Date fin":"2026-08-05","Titre":"Travaux d'AEP"},"id":"j0I0z"},{"type":"Feature","geometry":{"type":"LineString","coordinates":[[-0.540453,44.75222,0],[-0.546224436318571,44.750943637336064,0],[-0.54805,44.750179,0],[-0.545026,44.747249,0],[-0.537,44.737131,0],[-0.531463,44.730028,0],[-0.528331,44.725638,0],[-0.528154,44.724552,0],[-0.525235,44.72507,0],[-0.522022,44.726888,0],[-0.519441,44.728789,0],[-0.520778,44.729997,0],[-0.521894,44.730821,0],[-0.523733,44.731166,0],[-0.524726,44.73169,0],[-0.525927,44.732712,0],[-0.527408,44.734496,0],[-0.531056,44.741018,0],[-0.532837,44.743944,0],[-0.533073,44.744371,0],[-0.53288,44.744752,0],[-0.531893,44.746139,0],[-0.530901,44.747805,0],[-0.530944,44.749268,0],[-0.531571,44.749934,0],[-0.530831,44.75129,0],[-0.532311,44.751976,0],[-0.532747,44.751888,0],[-0.533609,44.751991,0],[-0.534875,44.75225,0],[-0.536935,44.752616,0]]},"properties":{"Type":"Déviation","Durée max (j)":"500","Marché":"GCOA7","Date début":"2026-09-14","Date fin":"2028-01-26","Titre":"Travaux Pont Général de Gaulle","Détail":"Déviation PL"},"id":"0a8vL"},{"type":"Feature","geometry":{"type":"LineString","coordinates":[[-0.540453,44.75222,0],[-0.546224436318571,44.75094419500376,0],[-0.54805,44.750179,0],[-0.545026,44.747249,0],[-0.543437,44.745224,0],[-0.542066,44.74615,0],[-0.541379,44.747339,0],[-0.539662,44.748375,0],[-0.539081,44.747966,0],[-0.5367,44.744158,0],[-0.53318,44.744478,0],[-0.53288,44.744752,0],[-0.531893,44.746139,0],[-0.530901,44.747805,0],[-0.530944,44.749268,0],[-0.531571,44.749934,0],[-0.530831,44.75129,0],[-0.532311,44.751976,0],[-0.532747,44.751888,0],[-0.533609,44.751991,0],[-0.534875,44.75225,0],[-0.536935,44.752616,0]]},"properties":{"Type":"Déviation","Durée max (j)":"500","Marché":"GCOA7","Date début":"2026-09-14","Date fin":"2028-01-26","Titre":"Travaux Pont Général de Gaulle","Détail":"Déviation VL"},"id":"SvMcB"},{"type":"Feature","geometry":{"type":"MultiLineString","coordinates":[[[-0.50601,44.71652,0],[-0.505754,44.716339,0],[-0.505457,44.716112,0],[-0.505221,44.715895,0],[-0.50477,44.715514,0]],[[-0.505204,44.716837],[-0.50495,44.716674],[-0.504719,44.716474],[-0.50447,44.71635],[-0.504068,44.716246],[-0.503927,44.716227]]]},"properties":{"Type":"Route barrée","Durée max (j)":null,"Marché":"TIERS - GRDF","Date début":"2026-09-01","Date fin":"2026-10-15","Titre":"TSV GRDF"},"id":"KMjjf"},{"type":"Feature","geometry":{"type":"LineString","coordinates":[[-0.540453,44.75222,0],[-0.539875,44.752303],[-0.538781,44.7526],[-0.537289,44.752661],[-0.536935,44.752616,0]]},"properties":{"Type":"Route barrée","Durée max (j)":"500","Marché":"GCOA7","Date début":"2026-09-14","Date fin":"2028-01-26","Titre":"Travaux Pont Général de Gaulle"},"id":"DfHly"},{"type":"Feature","geometry":{"type":"LineString","coordinates":[[-0.515686,44.720736,0],[-0.5153,44.720858,0],[-0.515161,44.720877,0],[-0.515085,44.720858,0],[-0.514474,44.720554,0]]},"properties":{"Type":"Circulation alternée","Durée max (j)":null,"Marché":"GCOA8","Date début":"2026-09-03","Date fin":"2026-09-18","Titre":"Raccordement provisoire du giratoire RD 214","Détail":"ATQ 2026-181 Prolongation 2026/128","Arrêté":"2026/139"},"id":"5fJx0"},{"type":"Feature","geometry":{"type":"LineString","coordinates":[[-0.539232,44.75588],[-0.538888,44.755953]]},"properties":{"Date début":"2026-09-07","Date fin":"2026-09-11","Type":"Circulation alternée","Marché":"TIERS","Titre":"Travaux GC Moulin Noir"},"id":"soJ4K"},{"type":"Feature","geometry":{"type":"LineString","coordinates":[[-0.54148,44.754371],[-0.541468,44.754528],[-0.541162,44.755133],[-0.540921,44.755195],[-0.540605,44.755255],[-0.54039,44.755339]]},"properties":{"Date début":"2026-09-14","Date fin":"2026-09-18","Type":"Circulation alternée","Marché":"TIERS","Titre":"Travaux GC Jean Moulin"},"id":"wUAWC"},{"type":"Feature","geometry":{"type":"Polygon","coordinates":[[[-0.508943,44.719723],[-0.509088,44.719585],[-0.510177,44.720401],[-0.509995,44.720549],[-0.508943,44.719723]]]},"properties":{"Type":"Occupation de voirie","Durée max (j)":"485","Date début":"2026-08-26","Date fin":"2027-12-23","Marché":"GCOA12","Titre":"Installation d'une grue à tour"},"id":"vAWTk"},{"type":"Feature","geometry":{"type":"LineString","coordinates":[[-0.536613,44.749568,0],[-0.537182,44.749339,0],[-0.5373,44.749377,0],[-0.53803,44.749926,0],[-0.538529,44.750642,0],[-0.538639,44.750829,0],[-0.538655,44.750916,0],[-0.538622,44.750985,0],[-0.538419,44.75116,0],[-0.539368,44.751956,0],[-0.539626,44.752368,0]]},"properties":{"Type":"Déviation","Durée max (j)":null,"Arrêté":" 89.2025","Marché":"PREPACAT2","Date début":"2025-05-16","Date fin":null,"Titre":"Restriction de hauteur des PN 9 & 10 : 4.2m"},"id":"DUeeo"},{"type":"Feature","geometry":{"type":"LineString","coordinates":[[-0.520158,44.729403,0],[-0.519659,44.728942,0],[-0.519525,44.728803,0],[-0.518696,44.728164,0],[-0.518267,44.727924,0]]},"properties":{"Type":"Limitation vitesse","Durée max (j)":null,"Arrêté":"28.11.2025","Marché":"GCOA3","Date début":"2025-07-28","Date fin":"2026-10-20","Titre":"Création d'un ouvrage de franchissement de la voie SNCF et reprise des carrefours"},"id":"CzEMM"},{"type":"Feature","geometry":{"type":"LineString","coordinates":[[-0.540012,44.755683,0],[-0.539854,44.755733,0]]},"properties":{"Type":"Circulation restreinte","Durée max (j)":null,"Arrêté":"88.2025","Marché":"PREPACAT2","Date début":"2025-05-16","Date fin":null,"Titre":"Hauteur limite de traversée du PN9 abaissée à 4,2m"},"id":"USplV"},{"type":"Feature","geometry":{"type":"LineString","coordinates":[[-0.536485,44.749616,0],[-0.536327,44.749666,0]]},"properties":{"Type":"Circulation restreinte","Durée max (j)":null,"Arrêté":"89.2025","Marché":"PREPACAT2","Date début":"2025-05-16","Date fin":null,"Titre":"Hauteur limite de traversée du PN10 abaissée à 4,2m"},"id":"j6h85"},{"type":"Feature","geometry":{"type":"LineString","coordinates":[[-0.533813,44.752113,12],[-0.533738,44.752261,12],[-0.53377,44.754189,9],[-0.533647,44.755907,7]]},"properties":{"Type":"Circulation restreinte","Durée max (j)":null,"Arrêté":"125.2023","Marché":null,"Date début":"2023-06-13","Date fin":null,"Titre":"Circulation sens unique dans le sens RD 111 vers Rue du Moulin Noir "},"id":"62pWw"},{"type":"Feature","geometry":{"type":"LineString","coordinates":[[-0.529983,44.739088,0],[-0.529653,44.739139,0]]},"properties":{"Type":"Route barrée","Durée max (j)":"179","Arrêté":"149.2026","Marché":null,"Date début":"2026-06-22","Date fin":"2026-12-17","Titre":"Travaux de création de voirie"},"id":"qUjXx"},{"type":"Feature","geometry":{"type":"LineString","coordinates":[[-0.529983,44.739088,0],[-0.53008,44.739069,0],[-0.528224,44.735905,0],[-0.527462,44.734601,0],[-0.526614,44.733543,0],[-0.524318,44.736811,0],[-0.524136,44.73691,0],[-0.524576,44.737109,0],[-0.525123,44.737276,0],[-0.525799,44.73736,0],[-0.526024,44.737939,0],[-0.526271,44.73816,0],[-0.526067,44.738884,0],[-0.526786,44.739029,0],[-0.527666,44.739158,0],[-0.528782,44.73925,0],[-0.529653,44.739139,0]]},"properties":{"Type":"Déviation","Durée max (j)":"179","Arrêté":"149.2026","Marché":null,"Date début":"2026-06-22","Date fin":"2026-12-17","Titre":"Travaux de création de voirie"},"id":"YJ78Y"},{"type":"Feature","geometry":{"type":"LineString","coordinates":[[-0.535594,44.748699,0],[-0.535096,44.748838,0],[-0.534685,44.748758,0]]},"properties":{"Type":"Route barrée","Durée max (j)":"81","Arrêté":"161.2026","Marché":null,"Date début":"2026-07-06","Date fin":"2026-09-24","Titre":"Travaux de création de la voirie"},"id":"yEmHq"},{"type":"Feature","geometry":{"type":"LineString","coordinates":[[-0.539663,44.754922,0],[-0.539628,44.754821,0],[-0.539644,44.754722,0],[-0.539719,44.754657,0],[-0.539843,44.754589,0]]},"properties":{"Type":"Circulation alternée","Durée max (j)":"30","Arrêté":"164.2026","Marché":"GCOA7","Date début":"2026-07-13","Date fin":"2026-08-11","Titre":"Réalisation de forages + stockage machine\n2x3j"},"id":"s9slp"},{"type":"Feature","geometry":{"type":"LineString","coordinates":[[-0.535645,44.748655,0],[-0.535455,44.748318,0]]},"properties":{"Type":"Circulation alternée","Durée max (j)":"30","Arrêté":"165.2026","Marché":"GCOA7","Date début":"2026-07-13","Date fin":"2026-08-11","Titre":"Réalisation de forages + stockage machine\n2x3j"},"id":"q1nwZ"},{"type":"Feature","geometry":{"type":"LineString","coordinates":[[-0.527963,44.734946,0],[-0.527601,44.734327,0]]},"properties":{"Type":"Route barrée","Durée max (j)":"30","Arrêté":"176.2026","Marché":"GCOA7","Date début":"2026-07-20","Date fin":"2026-08-18","Titre":"Réalisation de forages + stockage machine\n2x3j"},"id":"Z34gd"},{"type":"Feature","geometry":{"type":"LineString","coordinates":[[-0.533727,44.744698,0],[-0.533571,44.744397,0],[-0.534049,44.744367,0]]},"properties":{"Type":"Route barrée","Durée max (j)":null,"Arrêté":"185.2026","Marché":"GCOA5","Date début":"2026-07-27","Date fin":"2026-07-31","Titre":"Reprise enrobés"},"id":"y5SQz"},{"type":"Feature","geometry":{"type":"LineString","coordinates":[[-0.533727,44.744698,0],[-0.533571,44.744397,0],[-0.534049,44.744367,0]]},"properties":{"Type":"Route barrée","Durée max (j)":null,"Arrêté":"204.2026","Marché":"GCOA5","Date début":"2026-08-10","Date fin":"2026-08-14","Titre":"Reprise enrobés"},"id":"vag6N"},{"type":"Feature","geometry":{"type":"LineString","coordinates":[[-0.535645,44.748655,0],[-0.535455,44.748318,0]]},"properties":{"Type":"Circulation alternée","Durée max (j)":"30","Arrêté":"208.2026","Marché":"GCOA7","Date début":"2026-08-15","Date fin":"2026-08-21","Titre":"Réalisation de forages + stockage machine\n2x3j"},"id":"JFHkY"},{"type":"Feature","geometry":{"type":"LineString","coordinates":[[-0.506264,44.717132,0],[-0.506093,44.717233,0]]},"properties":{"Type":"Circulation restreinte","Durée max (j)":null,"Arrêté":"2025/177","Marché":null,"Date début":"2025-10-12","Date fin":null,"Titre":"Portiques G3 - Gabarit limité à 4.2m"},"id":"bYQW4"},{"type":"Feature","geometry":{"type":"LineString","coordinates":[[-0.509049,44.7195,0],[-0.509162,44.719361,0]]},"properties":{"Type":"Route barrée","Durée max (j)":"122","Arrêté":"2026-0084","Marché":null,"Date début":"2026-05-13","Date fin":"2026-09-11","Titre":"Fermeture définitive du passage à niveau n°13"},"id":"aUaBB"},{"type":"Feature","geometry":{"type":"LineString","coordinates":[[-0.509049,44.7195,0],[-0.509024,44.719526,0],[-0.507866,44.718693,0],[-0.506031,44.717275,0],[-0.506401,44.717062,0],[-0.506712,44.717401,0],[-0.506948,44.717446,0],[-0.507345,44.717492,0],[-0.509271,44.717984,0],[-0.509459,44.718117,0],[-0.5097,44.718334,0],[-0.509853,44.718426,0],[-0.509162,44.719361,0]]},"properties":{"Type":"Déviation","Durée max (j)":"122","Arrêté":"2026-0084","Marché":null,"Date début":"2026-05-13","Date fin":"2026-09-11","Titre":"Fermeture définitive du passage à niveau n°13"},"id":"Ra319"},{"type":"Feature","geometry":{"type":"LineString","coordinates":[[-0.509545,44.718849,0],[-0.509056,44.719503,0],[-0.508638,44.719924,0]]},"properties":{"Type":"Circulation alternée","Durée max (j)":"60","Arrêté":"2026/107","Marché":null,"Date début":"2026-06-29","Date fin":"2026-07-10","Titre":"Travaux gaz"},"id":"AAlTB"},{"type":"Feature","geometry":{"type":"LineString","coordinates":[[-0.515177,44.720964,0],[-0.515504,44.721132,0],[-0.515746,44.721246,0]]},"properties":{"Type":"Circulation restreinte","Durée max (j)":null,"Arrêté":"2026/109","Marché":"GCOA8","Date début":"2026-07-01","Date fin":"2026-07-21","Titre":"Bedat - Travaux assainissement"},"id":"gZXQF"},{"type":"Feature","geometry":{"type":"LineString","coordinates":[[-0.509491,44.71892,0],[-0.509158,44.719368,0]]},"properties":{"Type":"Route barrée","Durée max (j)":"3","Arrêté":"2026/125","Marché":null,"Date début":"2026-08-03","Date fin":"2026-08-05","Titre":"Raccordement des réseaux d'AEP et d'assainissement","Détail":"Les 8 places de parking seront bloquées mais l'accès restera disponible pour les services techniques ainsi que les mariages"},"id":"8tuIY"},{"type":"Feature","geometry":{"type":"LineString","coordinates":[[-0.508971,44.719581,0],[-0.508638,44.719924,0]]},"properties":{"Type":"Circulation alternée","Durée max (j)":"3","Arrêté":"2026/125","Marché":null,"Date début":"2026-08-03","Date fin":"2026-08-05","Titre":"Déplacement des réseaux d'AEP et d'assainissement"},"id":"kFqm2"},{"type":"Feature","geometry":{"type":"LineString","coordinates":[[-0.515686,44.720736,0],[-0.5153,44.720858,0],[-0.515161,44.720877,0],[-0.515085,44.720858,0],[-0.514474,44.720554,0]]},"properties":{"Type":"Circulation alternée","Durée max (j)":null,"Arrêté":"2026/128","Marché":"GCOA8","Date début":"2026-08-17","Date fin":"2026-09-02","Titre":"Raccordement provisoire du giratoire RD 214"},"id":"zVxmG"},{"type":"Feature","geometry":{"type":"Polygon","coordinates":[[[-0.50889,44.720361],[-0.508791,44.720336],[-0.508804,44.720296],[-0.508909,44.720322],[-0.50889,44.720361]]]},"properties":{"Arrêté":"2026/136","Date début":"2026-08-26","Date fin":"2027-12-23","Type":"Occupation de voirie","Durée max (j)":"485","Marché":"GCOA12","Titre":"Installation Lest Béton","Détail":"Un passage sous câbles > 4m"},"id":"oecdn"},{"type":"Feature","geometry":{"type":"LineString","coordinates":[[-0.509491,44.71892,0],[-0.509158,44.719368,0]]},"properties":{"Type":"Route barrée","Durée max (j)":"5","Date début":"2026-08-24","Date fin":"2026-08-28","Arrêté":"2026/137","Marché":"TIERS - CANASOUT","Titre":"Raccordement des réseaux d'AEP et d'assainissement"},"id":"7rDXv"},{"type":"Feature","geometry":{"type":"LineString","coordinates":[[-0.508971,44.719581,0],[-0.508638,44.719924,0]]},"properties":{"Type":"Circulation alternée","Durée max (j)":"5","Arrêté":"2026/137","Marché":"TIERS - CANASOUT","Date début":"2026-08-24","Date fin":"2026-08-28","Titre":"Raccordement des réseaux d'AEP et d'assainissement"},"id":"SKdTD"}],"properties":{"displayOnLoad":true,"inCaption":true,"browsable":true,"name":"Arretes circulation","rules":[{"name":"","condition":"Type=Route barrée","properties":{"color":"Red"}},{"name":"","condition":"Type=Circulation alternée","properties":{"color":"DarkOrange"}},{"name":"","condition":"Type=Déviation","properties":{"color":"LimeGreen"}},{"name":"","condition":"Type=Limitation vitesse","properties":{"color":"Gold"}},{"name":"","condition":"Type=Circulation restreinte","properties":{"color":"DarkOrchid"}},{"name":"","condition":"Arrêté=Demande en cours","properties":{"dashArray":"20,20,20"}},{"name":"","condition":"Type=Occupation de voirie","properties":{"color":"GoldenRod"}}],"fields":[{"key":"Arrêté","type":"String"},{"key":"Titre","type":"String"},{"key":"Date début","type":"String"},{"key":"Date fin","type":"String"},{"key":"Type","type":"String"},{"key":"Durée max (j)","type":"String"},{"key":"Détail","type":"String"},{"key":"Marché","type":"String"}],"sortKey":"Arrêté","labelKey":"Arrêté","showLabel":null,"popupShape":"Default","remoteData":{},"popupTemplate":"Table","popupContentTemplate":""},"id":"e6709f7d-72cc-4bb0-a4fa-9de6db08f9ab","rank":0}